     2.100          NAVIGATION                              RINEX VERSION / TYPE
fic2rin                                 01/04/2011 00:10:18 PGM / RUN BY / DATE
                                                            END OF HEADER
30 11  1  3 16  0  0.0  .310362782329D-03  .318323145621D-11  .000000000000D+00
     .900000000000D+02 -.127000000000D+03  .428017828661D-08 -.111703053868D+01
    -.647269189358D-05  .130046517588D-01  .829063355923D-05  .515536483002D+04
     .144000000000D+06 -.178813934326D-06 -.496468953479D+00  .210478901863D-06
     .959155121575D+00  .219937500000D+03  .155560759593D+01 -.808640825993D-08
    -.532165023952D-10  .100000000000D+01  .161700000000D+04  .000000000000D+00
     .340000000000D+01  .000000000000D+00 -.791624188423D-08  .900000000000D+02
     .136806000000D+06  .400000000000D+01
31 11  1  3 16  0  0.0  .256611965597D-04  .420641299570D-11  .000000000000D+00
     .360000000000D+02 -.287812500000D+02  .420803242430D-08  .242291771712D+01
    -.133737921715D-05  .783988810144D-02 -.521540641785D-07  .515357127571D+04
     .144000000000D+06  .117346644402D-06 -.149372791960D+01  .745058059692D-08
     .978466216611D+00  .387812500000D+03 -.102660823051D+01 -.815212528303D-08
    -.121433629627D-09  .100000000000D+01  .161700000000D+04  .000000000000D+00
     .240000000000D+01  .000000000000D+00 -.130385160446D-07  .360000000000D+02
     .136806000000D+06  .400000000000D+01
 3 11  1  3 15 59 44.0  .657564029098D-03  .511590769747D-11  .000000000000D+00
     .170000000000D+02 -.687500000000D+00  .510664128354D-08 -.223415281110D+01
    -.244006514549D-06  .138779563131D-01  .987388193607D-05  .515363375092D+04
     .143984000000D+06  .134110450745D-06  .468496169192D+00 -.987201929092D-07
     .928334757006D+00  .167343750000D+03  .106797528939D+01 -.793140180329D-08
     .752531345951D-09  .100000000000D+01  .161700000000D+04  .000000000000D+00
     .240000000000D+01  .000000000000D+00 -.465661287308D-08  .170000000000D+02
     .138666000000D+06  .400000000000D+01
 9 11  1  3 15 59 44.0  .529889948666D-04  .238742359215D-11  .000000000000D+00
     .180000000000D+02 -.165625000000D+02  .416695928487D-08  .172692569119D+01
    -.127591192722D-05  .169879207388D-01 -.560656189919D-06  .515368814468D+04
     .143984000000D+06  .167638063431D-06 -.152388476744D+01 -.311061739922D-06
     .982257917408D+00  .401281250000D+03  .155560397521D+01 -.820784188956D-08
    -.332156692802D-10  .100000000000D+01  .161700000000D+04  .000000000000D+00
     .240000000000D+01  .000000000000D+00 -.558793544769D-08  .180000000000D+02
     .138906000000D+06  .400000000000D+01
 5 11  1  3 15 59 44.0 -.931164249778D-04 -.591171556152D-11  .000000000000D+00
     .100000000000D+02  .316875000000D+02  .446018578464D-08 -.474592385821D+00
     .158324837685D-05  .220949342474D-02  .111218541861D-04  .515359187508D+04
     .143984000000D+06  .149011611938D-07  .268558813268D+01 -.242143869400D-07
     .955933108874D+00  .162312500000D+03  .240489768678D+00 -.781211112007D-08
    -.653955811313D-09  .100000000000D+01  .161700000000D+04  .000000000000D+00
     .240000000000D+01  .000000000000D+00 -.977888703346D-08  .100000000000D+02
     .140706000000D+06  .400000000000D+01
20 11  1  3 15 59 44.0  .488762743771D-04 -.113686837722D-12  .000000000000D+00
     .140000000000D+02  .307500000000D+02  .499163649312D-08  .764023165980D+00
     .155903398991D-05  .458029995207D-02  .104010105133D-04  .515376032448D+04
     .143984000000D+06 -.335276126862D-07  .265279652111D+01  .409781932831D-07
     .934849644697D+00  .164812500000D+03  .125628240299D+01 -.812748139937D-08
    -.615025618286D-09  .100000000000D+01  .161700000000D+04  .000000000000D+00
     .240000000000D+01  .000000000000D+00 -.791624188423D-08  .140000000000D+02
     .143286000000D+06  .400000000000D+01
 3 11  1  3 17 59 44.0  .657601282001D-03  .511590769747D-11  .000000000000D+00
     .250000000000D+02 -.896875000000D+01  .513842832188D-08 -.118384791170D+01
    -.251457095146D-06  .138779779663D-01  .974722206593D-05  .515363621712D+04
     .151184000000D+06  .188127160072D-06  .468439365546D+00  .260770320892D-06
     .928338550353D+00  .172968750000D+03  .106787880848D+01 -.823141430002D-08
     .597524889310D-09  .100000000000D+01  .161700000000D+04  .000000000000D+00
     .240000000000D+01  .000000000000D+00 -.465661287308D-08  .250000000000D+02
     .144006000000D+06  .400000000000D+01
 5 11  1  3 17 59 44.0 -.931592658162D-04 -.591171556152D-11  .000000000000D+00
     .300000000000D+02  .360937500000D+02  .448161524869D-08  .575616255036D+00
     .193528831005D-05  .221063988283D-02  .106021761894D-04  .515359404182D+04
     .151184000000D+06  .149011611938D-07  .268553184544D+01 -.353902578354D-07
     .955928379260D+00  .169281250000D+03  .240511026341D+00 -.781925427475D-08
    -.650384233971D-09  .100000000000D+01  .161700000000D+04  .000000000000D+00
     .240000000000D+01  .000000000000D+00 -.977888703346D-08  .300000000000D+02
     .144006000000D+06  .400000000000D+01
 9 11  1  3 17 59 44.0  .530062243342D-04  .238742359215D-11  .000000000000D+00
     .190000000000D+02 -.238125000000D+02  .420088926961D-08  .277711057280D+01
    -.114738941193D-05  .169888259843D-01 -.936910510063D-06  .515368671799D+04
     .151184000000D+06  .163912773132D-06 -.152394219575D+01 -.242143869400D-07
     .982258016886D+00  .407937500000D+03  .155558794162D+01 -.800961934708D-08
    -.127862468842D-09  .100000000000D+01  .161700000000D+04  .000000000000D+00
     .240000000000D+01  .000000000000D+00 -.558793544769D-08  .190000000000D+02
     .144006000000D+06  .400000000000D+01
20 11  1  3 17 59 44.0  .488753430545D-04 -.113686837722D-12  .000000000000D+00
     .150000000000D+02  .202187500000D+02  .491163316066D-08  .181386443592D+01
     .955536961555D-06  .458087574225D-02  .102892518044D-04  .515376302719D+04
     .151184000000D+06 -.447034835815D-07  .265273796050D+01 -.707805156708D-07
     .934845773816D+00  .166093750000D+03  .125657134540D+01 -.802997733793D-08
    -.565023535498D-09  .100000000000D+01  .161700000000D+04  .000000000000D+00
     .240000000000D+01  .000000000000D+00 -.791624188423D-08  .150000000000D+02
     .144006000000D+06  .400000000000D+01
 1 11  1  3 18  0  0.0 -.196985900402D-03 -.329691829393D-11  .000000000000D+00
     .430000000000D+02 -.136656250000D+03  .408909889881D-08  .495075224110D+00
    -.707060098648D-05  .439546199050D-02  .809319317341D-05  .515355298615D+04
     .151200000000D+06 -.633299350739D-07 -.455446884334D+00  .428408384323D-07
     .967665530468D+00  .228093750000D+03  .912431475508D+00 -.787711382769D-08
    -.835749098019D-10  .100000000000D+01  .161700000000D+04  .000000000000D+00
     .240000000000D+01  .630000000000D+02 -.190921127796D-07  .430000000000D+02
     .144006000000D+06  .400000000000D+01
 2 11  1  3 18  0  0.0  .312573276460D-03  .227373675443D-11  .000000000000D+00
     .790000000000D+02 -.828125000000D+01  .555058834714D-08 -.110462570142D+01
    -.419095158577D-06  .988452427555D-02  .484474003315D-05  .515367671776D+04
     .151200000000D+06  .651925802231D-07  .162433981022D+01 -.167638063431D-06
     .938749510731D+00  .273718750000D+03 -.311159024748D+01 -.839356391134D-08
     .178578867098D-11  .100000000000D+01  .161700000000D+04  .000000000000D+00
     .240000000000D+01  .000000000000D+00 -.172294676304D-07  .790000000000D+02
     .144006000000D+06  .400000000000D+01
 4 11  1  3 18  0  0.0  .261781271547D-03  .989075488178D-11  .000000000000D+00
     .101000000000D+03 -.971875000000D+01  .559809032579D-08  .184430620168D+01
    -.515952706337D-06  .964535342064D-02  .532343983650D-05  .515355734444D+04
     .151200000000D+06 -.240281224251D-06  .164192980554D+01  .745058059692D-08
     .937858666767D+00  .268625000000D+03  .698311773660D+00 -.842213653008D-08
    -.153934983439D-09  .100000000000D+01  .161700000000D+04  .000000000000D+00
     .240000000000D+01  .000000000000D+00 -.605359673500D-08  .101000000000D+03
     .144006000000D+06  .400000000000D+01
 6 11  1  3 18  0  0.0  .377478543669D-03 -.636646291241D-11  .000000000000D+00
     .380000000000D+02 -.996875000000D+01  .502270921600D-08  .938443735983D+00
    -.618398189545D-06  .629128166474D-02  .950694084167D-05  .515365689850D+04
     .151200000000D+06  .894069671631D-07  .540867779874D+00 -.182539224625D-06
     .935490448166D+00  .183750000000D+03 -.886488117011D+00 -.815676833357D-08
     .637169397806D-09  .100000000000D+01  .161700000000D+04  .000000000000D+00
     .240000000000D+01  .000000000000D+00 -.465661287308D-08  .380000000000D+02
     .144006000000D+06  .400000000000D+01
 7 11  1  3 18  0  0.0  .126380473375D-05  .568434188608D-12  .000000000000D+00
     .600000000000D+02 -.352500000000D+02  .444411368660D-08 -.285053234654D+01
    -.180862843990D-05  .417082768399D-02  .128522515297D-06  .515367670441D+04
     .151200000000D+06 -.502914190292D-07 -.149439622008D+01 -.391155481339D-07
     .973275816913D+00  .384187500000D+03 -.309937712125D+01 -.827427322812D-08
    -.857178562071D-10  .100000000000D+01  .161700000000D+04  .000000000000D+00
     .240000000000D+01  .000000000000D+00 -.102445483208D-07  .600000000000D+02
     .144006000000D+06  .400000000000D+01
 8 11  1  3 18  0  0.0  .712415203452D-05  .000000000000D+00  .000000000000D+00
     .970000000000D+02 -.516562500000D+02  .392194907921D-08  .289741856376D+01
    -.270269811153D-05  .114537019981D-01  .596046447754D-06  .515363045311D+04
     .151200000000D+06 -.197440385818D-06 -.142184440276D+01 -.428408384323D-07
     .994841862654D+00  .388375000000D+03 -.309398833962D+01 -.795033116320D-08
    -.156077929844D-09  .100000000000D+01  .161700000000D+04  .000000000000D+00
     .340000000000D+01  .000000000000D+00 -.419095158577D-08  .970000000000D+02
     .144006000000D+06  .400000000000D+01
